CCSDS_OMM_VERS = 2.0
CREATION_DATE  = 
ORIGINATOR     = 

OBJECT_NAME    = SL-4 R/B
OBJECT_ID      = 2014-021B
CENTER_NAME    = EARTH
REF_FRAME      = TEME
TIME_SYSTEM    = UTC
MEAN_ELEMENT_THEORY = SGP/SGP4

EPOCH          = 2026-01-16T14:14:11.654880
MEAN_MOTION    = 15.37543336
ECCENTRICITY   = .00993495
INCLINATION    = 51.6060
RA_OF_ASC_NODE = 231.1007
ARG_OF_PERICENTER = 272.7700
MEAN_ANOMALY   = 86.1915

EPHEMERIS_TYPE = 0
CLASSIFICATION_TYPE = U
NORAD_CAT_ID   = 39679
ELEMENT_SET_NO = 999
REV_AT_EPOCH   = 64825
BSTAR          = .18714705E-3
MEAN_MOTION_DOT = .7834E-4
MEAN_MOTION_DDOT = 0

CCSDS_OMM_VERS = 2.0
CREATION_DATE  = 
ORIGINATOR     = 

OBJECT_NAME    = ALOS-2
OBJECT_ID      = 2014-029A
CENTER_NAME    = EARTH
REF_FRAME      = TEME
TIME_SYSTEM    = UTC
MEAN_ELEMENT_THEORY = SGP/SGP4

EPOCH          = 2026-01-16T13:46:28.256160
MEAN_MOTION    = 14.79488340
ECCENTRICITY   = .00014764
INCLINATION    = 97.9206
RA_OF_ASC_NODE = 115.9215
ARG_OF_PERICENTER = 96.8232
MEAN_ANOMALY   = 263.3147

EPHEMERIS_TYPE = 0
CLASSIFICATION_TYPE = U
NORAD_CAT_ID   = 39766
ELEMENT_SET_NO = 999
REV_AT_EPOCH   = 62916
BSTAR          = .12806658E-3
MEAN_MOTION_DOT = .905E-5
MEAN_MOTION_DDOT = 0

CCSDS_OMM_VERS = 2.0
CREATION_DATE  = 
ORIGINATOR     = 

OBJECT_NAME    = YAOGAN-29
OBJECT_ID      = 2015-069A
CENTER_NAME    = EARTH
REF_FRAME      = TEME
TIME_SYSTEM    = UTC
MEAN_ELEMENT_THEORY = SGP/SGP4

EPOCH          = 2026-01-16T13:40:40.052064
MEAN_MOTION    = 14.82926941
ECCENTRICITY   = .00024047
INCLINATION    = 98.0198
RA_OF_ASC_NODE = 44.8500
ARG_OF_PERICENTER = 123.2032
MEAN_ANOMALY   = 236.9412

EPHEMERIS_TYPE = 0
CLASSIFICATION_TYPE = U
NORAD_CAT_ID   = 41038
ELEMENT_SET_NO = 999
REV_AT_EPOCH   = 54815
BSTAR          = .10718157E-3
MEAN_MOTION_DOT = .815E-5
MEAN_MOTION_DDOT = 0

CCSDS_OMM_VERS = 2.0
CREATION_DATE  = 
ORIGINATOR     = 

OBJECT_NAME    = ASTRO-H (HITOMI)
OBJECT_ID      = 2016-012A
CENTER_NAME    = EARTH
REF_FRAME      = TEME
TIME_SYSTEM    = UTC
MEAN_ELEMENT_THEORY = SGP/SGP4

EPOCH          = 2026-01-16T04:59:12.720768
MEAN_MOTION    = 15.09597846
ECCENTRICITY   = .00097319
INCLINATION    = 31.0008
RA_OF_ASC_NODE = 335.1237
ARG_OF_PERICENTER = 166.6932
MEAN_ANOMALY   = 193.3964

EPHEMERIS_TYPE = 0
CLASSIFICATION_TYPE = U
NORAD_CAT_ID   = 41337
ELEMENT_SET_NO = 999
REV_AT_EPOCH   = 54429
BSTAR          = .11413039E-3
MEAN_MOTION_DOT = .1976E-4
MEAN_MOTION_DDOT = 0

CCSDS_OMM_VERS = 2.0
CREATION_DATE  = 
ORIGINATOR     = 

OBJECT_NAME    = HXMT (HUIYAN)
OBJECT_ID      = 2017-034A
CENTER_NAME    = EARTH
REF_FRAME      = TEME
TIME_SYSTEM    = UTC
MEAN_ELEMENT_THEORY = SGP/SGP4

EPOCH          = 2026-01-16T15:12:32.498208
MEAN_MOTION    = 15.16722124
ECCENTRICITY   = .00335404
INCLINATION    = 43.0156
RA_OF_ASC_NODE = 305.9283
ARG_OF_PERICENTER = 265.6771
MEAN_ANOMALY   = 94.0244

EPHEMERIS_TYPE = 0
CLASSIFICATION_TYPE = U
NORAD_CAT_ID   = 42758
ELEMENT_SET_NO = 999
REV_AT_EPOCH   = 47463
BSTAR          = .22980492E-3
MEAN_MOTION_DOT = .4412E-4
MEAN_MOTION_DDOT = 0

CCSDS_OMM_VERS = 2.0
CREATION_DATE  = 
ORIGINATOR     = 

OBJECT_NAME    = CZ-2C R/B
OBJECT_ID      = 2018-054D
CENTER_NAME    = EARTH
REF_FRAME      = TEME
TIME_SYSTEM    = UTC
MEAN_ELEMENT_THEORY = SGP/SGP4

EPOCH          = 2026-01-16T03:24:00.425376
MEAN_MOTION    = 15.83471558
ECCENTRICITY   = .00107837
INCLINATION    = 35.1337
RA_OF_ASC_NODE = 306.1185
ARG_OF_PERICENTER = 147.2385
MEAN_ANOMALY   = 212.9021

EPHEMERIS_TYPE = 0
CLASSIFICATION_TYPE = U
NORAD_CAT_ID   = 43521
ELEMENT_SET_NO = 999
REV_AT_EPOCH   = 42049
BSTAR          = .66355118E-3
MEAN_MOTION_DOT = .154018E-2
MEAN_MOTION_DDOT = 0

CCSDS_OMM_VERS = 2.0
CREATION_DATE  = 
ORIGINATOR     = 

OBJECT_NAME    = SAOCOM 1A
OBJECT_ID      = 2018-076A
CENTER_NAME    = EARTH
REF_FRAME      = TEME
TIME_SYSTEM    = UTC
MEAN_ELEMENT_THEORY = SGP/SGP4

EPOCH          = 2026-01-16T15:25:00.074208
MEAN_MOTION    = 14.82149286
ECCENTRICITY   = .00015101
INCLINATION    = 97.8852
RA_OF_ASC_NODE = 205.5572
ARG_OF_PERICENTER = 84.9105
MEAN_ANOMALY   = 275.2281

EPHEMERIS_TYPE = 0
CLASSIFICATION_TYPE = U
NORAD_CAT_ID   = 43641
ELEMENT_SET_NO = 999
REV_AT_EPOCH   = 39365
BSTAR          = .4844219E-5
MEAN_MOTION_DOT = -.14E-6
MEAN_MOTION_DDOT = 0

CCSDS_OMM_VERS = 2.0
CREATION_DATE  = 
ORIGINATOR     = 

OBJECT_NAME    = H-2A R/B
OBJECT_ID      = 2018-084L
CENTER_NAME    = EARTH
REF_FRAME      = TEME
TIME_SYSTEM    = UTC
MEAN_ELEMENT_THEORY = SGP/SGP4

EPOCH          = 2026-01-16T13:29:47.779584
MEAN_MOTION    = 15.38844279
ECCENTRICITY   = .00259016
INCLINATION    = 98.8762
RA_OF_ASC_NODE = 222.9028
ARG_OF_PERICENTER = 203.3980
MEAN_ANOMALY   = 156.6084

EPHEMERIS_TYPE = 0
CLASSIFICATION_TYPE = U
NORAD_CAT_ID   = 43682
ELEMENT_SET_NO = 999
REV_AT_EPOCH   = 39775
BSTAR          = .39025558E-3
MEAN_MOTION_DOT = .15067E-3
MEAN_MOTION_DDOT = 0

CCSDS_OMM_VERS = 2.0
CREATION_DATE  = 
ORIGINATOR     = 

OBJECT_NAME    = SAOCOM 1B
OBJECT_ID      = 2020-059A
CENTER_NAME    = EARTH
REF_FRAME      = TEME
TIME_SYSTEM    = UTC
MEAN_ELEMENT_THEORY = SGP/SGP4

EPOCH          = 2026-01-16T14:32:42.988704
MEAN_MOTION    = 14.82149884
ECCENTRICITY   = .00013339
INCLINATION    = 97.8848
RA_OF_ASC_NODE = 204.6205
ARG_OF_PERICENTER = 88.6948
MEAN_ANOMALY   = 271.4418

EPHEMERIS_TYPE = 0
CLASSIFICATION_TYPE = U
NORAD_CAT_ID   = 46265
ELEMENT_SET_NO = 999
REV_AT_EPOCH   = 29103
BSTAR          = .53308575E-4
MEAN_MOTION_DOT = .372E-5
MEAN_MOTION_DDOT = 0

CCSDS_OMM_VERS = 2.0
CREATION_DATE  = 
ORIGINATOR     = 

OBJECT_NAME    = CSS (TIANHE)
OBJECT_ID      = 2021-035A
CENTER_NAME    = EARTH
REF_FRAME      = TEME
TIME_SYSTEM    = UTC
MEAN_ELEMENT_THEORY = SGP/SGP4

EPOCH          = 2026-01-16T14:34:27.969024
MEAN_MOTION    = 15.60562549
ECCENTRICITY   = .00112662
INCLINATION    = 41.4653
RA_OF_ASC_NODE = 164.7931
ARG_OF_PERICENTER = 297.5042
MEAN_ANOMALY   = 62.4652

EPHEMERIS_TYPE = 0
CLASSIFICATION_TYPE = U
NORAD_CAT_ID   = 48274
ELEMENT_SET_NO = 999
REV_AT_EPOCH   = 26947
BSTAR          = .18057507E-3
MEAN_MOTION_DOT = .15077E-3
MEAN_MOTION_DDOT = 0

CCSDS_OMM_VERS = 2.0
CREATION_DATE  = 
ORIGINATOR     = 

OBJECT_NAME    = COSMOS 2550
OBJECT_ID      = 2021-056A
CENTER_NAME    = EARTH
REF_FRAME      = TEME
TIME_SYSTEM    = UTC
MEAN_ELEMENT_THEORY = SGP/SGP4

EPOCH          = 2026-01-16T00:36:19.997280
MEAN_MOTION    = 15.33842650
ECCENTRICITY   = .00083518
INCLINATION    = 67.1433
RA_OF_ASC_NODE = 200.2298
ARG_OF_PERICENTER = 269.6219
MEAN_ANOMALY   = 90.3979

EPHEMERIS_TYPE = 0
CLASSIFICATION_TYPE = U
NORAD_CAT_ID   = 48865
ELEMENT_SET_NO = 999
REV_AT_EPOCH   = 25538
BSTAR          = .256445E-6
MEAN_MOTION_DOT = -.183E-5
MEAN_MOTION_DDOT = 0

CCSDS_OMM_VERS = 2.0
CREATION_DATE  = 
ORIGINATOR     = 

OBJECT_NAME    = CZ-2C R/B
OBJECT_ID      = 2022-058K
CENTER_NAME    = EARTH
REF_FRAME      = TEME
TIME_SYSTEM    = UTC
MEAN_ELEMENT_THEORY = SGP/SGP4

EPOCH          = 2026-01-16T07:23:57.348096
MEAN_MOTION    = 15.50517033
ECCENTRICITY   = .00429479
INCLINATION    = 50.1877
RA_OF_ASC_NODE = 226.9900
ARG_OF_PERICENTER = 340.2996
MEAN_ANOMALY   = 19.6312

EPHEMERIS_TYPE = 0
CLASSIFICATION_TYPE = U
NORAD_CAT_ID   = 52794
ELEMENT_SET_NO = 999
REV_AT_EPOCH   = 20199
BSTAR          = .28284201E-3
MEAN_MOTION_DOT = .16647E-3
MEAN_MOTION_DDOT = 0

