SL-4 R/B                
1 39679U 14021B   26016.59319045  .00007834  00000+0  18715-3 0  9999
2 39679  51.6060 231.1007 0099349 272.7700  86.1915 15.37543336648252
ALOS-2                  
1 39766U 14029A   26016.57393815  .00000905  00000+0  12807-3 0  9997
2 39766  97.9206 115.9215 0001476  96.8232 263.3147 14.79488340629166
YAOGAN-29               
1 41038U 15069A   26016.56990801  .00000815  00000+0  10718-3 0  9993
2 41038  98.0198  44.8500 0002404 123.2032 236.9412 14.82926941548153
ASTRO-H (HITOMI)        
1 41337U 16012A   26016.20778612  .00001976  00000+0  11413-3 0  9991
2 41337  31.0008 335.1237 0009731 166.6932 193.3964 15.09597846544292
HXMT (HUIYAN)           
1 42758U 17034A   26016.63370947  .00004412  00000+0  22980-3 0  9999
2 42758  43.0156 305.9283 0033540 265.6771  94.0244 15.16722124474634
CZ-2C R/B               
1 43521U 18054D   26016.14167159  .00154018  00000+0  66355-3 0  9998
2 43521  35.1337 306.1185 0010783 147.2385 212.9021 15.83471558420495
SAOCOM 1A               
1 43641U 18076A   26016.64236197 -.00000014  00000+0  48442-5 0  9995
2 43641  97.8852 205.5572 0001510  84.9105 275.2281 14.82149286393657
H-2A R/B                
1 43682U 18084L   26016.56235856  .00015067  00000+0  39026-3 0  9990
2 43682  98.8762 222.9028 0025901 203.3980 156.6084 15.38844279397754
SAOCOM 1B               
1 46265U 20059A   26016.60605311  .00000372  00000+0  53309-4 0  9991
2 46265  97.8848 204.6205 0001333  88.6948 271.4418 14.82149884291032
CSS (TIANHE)            
1 48274U 21035A   26016.60726816  .00015077  00000+0  18058-3 0  9991
2 48274  41.4653 164.7931 0011266 297.5042  62.4652 15.60562549269472
COSMOS 2550             
1 48865U 21056A   26016.02523145 -.00000183  00000+0  25645-6 0  9992
2 48865  67.1433 200.2298 0008351 269.6219  90.3979 15.33842650255389
CZ-2C R/B               
1 52794U 22058K   26016.30830264  .00016647  00000+0  28284-3 0  9995
2 52794  50.1877 226.9900 0042947 340.2996  19.6312 15.50517033201997
